{"type": "FeatureCollection", "features": [ {"type": "Feature", "properties": {"norad_id": 52984, "name": "COSMOS 2557 (706K)", "group": "gnss", "lat": -28.382727800813964, "lon": -53.78257506982038, "alt_km": 19111.905519842552, "timestamp": "2025-12-07T14:37:05.448840+00:00", "meta": {"OBJECT_NAME": "COSMOS 2557 (706K)", "OBJECT_ID": "2022-075A", "EPOCH": "2025-12-06T05:49:32.114784", "MEAN_MOTION": 2.13101746, "ECCENTRICITY": 0.001371, "INCLINATION": 64.4134, "RA_OF_ASC_NODE": 321.2801, "ARG_OF_PERICENTER": 276.8497, "MEAN_ANOMALY": 82.9895, "EPHEMERIS_TYPE": 0, "CLASSIFICATION_TYPE": "U", "NORAD_CAT_ID": 52984, "ELEMENT_SET_NO": 999, "REV_AT_EPOCH": 2660, "BSTAR": 0, "MEAN_MOTION_DOT": -5.1e-07, "MEAN_MOTION_DDOT": 0}, "tle": {"line1": "1 52984U 22075A   25340.24273281 -.00000051  00000+0  00000+0 0  9992", "line2": "2 52984  64.4134 321.2801 0013710 276.8497  82.9895  2.13101746 26604"}}, "geometry": {"type": "Point", "coordinates": [-53.78257506982038, -28.382727800813964]}}, {"type": "Feature", "properties": {"norad_id": 54031, "name": "COSMOS 2559 (707K)", "group": "gnss", "lat": 59.6606556565342, "lon": 86.26670632809089, "alt_km": 19121.171079573633, "timestamp": "2025-12-07T14:37:05.448854+00:00", "meta": {"OBJECT_NAME": "COSMOS 2559 (707K)", "OBJECT_ID": "2022-130A", "EPOCH": "2025-12-03T17:10:26.893920", "MEAN_MOTION": 2.13101235, "ECCENTRICITY": 0.00120262, "INCLINATION": 64.3873, "RA_OF_ASC_NODE": 321.4588, "ARG_OF_PERICENTER": 192.7508, "MEAN_ANOMALY": 167.2215, "EPHEMERIS_TYPE": 0, "CLASSIFICATION_TYPE": "U", "NORAD_CAT_ID": 54031, "ELEMENT_SET_NO": 999, "REV_AT_EPOCH": 2452, "BSTAR": 0, "MEAN_MOTION_DOT": -4.4e-07, "MEAN_MOTION_DDOT": 0}, "tle": {"line1": "1 54031U 22130A   25337.71558905 -.00000044  00000+0  00000+0 0  9998", "line2": "2 54031  64.3873 321.4588 0012026 192.7508 167.2215  2.13101235 24525"}}, "geometry": {"type": "Point", "coordinates": [86.26670632809089, 59.6606556565342]}}, {"type": "Feature", "properties": {"norad_id": 54377, "name": "COSMOS 2564 (761)", "group": "gnss", "lat": -40.97321355931991, "lon": 43.285402395631316, "alt_km": 19114.212394144164, "timestamp": "2025-12-07T14:37:05.448866+00:00", "meta": {"OBJECT_NAME": "COSMOS 2564 (761)", "OBJECT_ID": "2022-161A", "EPOCH": "2025-12-05T21:44:52.430496", "MEAN_MOTION": 2.13101969, "ECCENTRICITY": 0.00086841, "INCLINATION": 64.7377, "RA_OF_ASC_NODE": 199.126, "ARG_OF_PERICENTER": 205.8227, "MEAN_ANOMALY": 154.2251, "EPHEMERIS_TYPE": 0, "CLASSIFICATION_TYPE": "U", "NORAD_CAT_ID": 54377, "ELEMENT_SET_NO": 999, "REV_AT_EPOCH": 2351, "BSTAR": 0, "MEAN_MOTION_DOT": 8e-07, "MEAN_MOTION_DDOT": 0}, "tle": {"line1": "1 54377U 22161A   25339.90616239  .00000080  00000+0  00000+0 0  9992", "line2": "2 54377  64.7377 199.1260 0008684 205.8227 154.2251  2.13101969 23515"}}, "geometry": {"type": "Point", "coordinates": [43.285402395631316, -40.97321355931991]}}, {"type": "Feature", "properties": {"norad_id": 55268, "name": "GPS BIII-6  (PRN 28)", "group": "gnss", "lat": 53.54134403205876, "lon": -133.05099160770104, "alt_km": 20174.939467361746, "timestamp": "2025-12-07T14:37:05.448877+00:00", "meta": {"OBJECT_NAME": "GPS BIII-6  (PRN 28)", "OBJECT_ID": "2023-009A", "EPOCH": "2025-12-03T18:12:38.807136", "MEAN_MOTION": 2.00556312, "ECCENTRICITY": 0.00036355, "INCLINATION": 55.1062, "RA_OF_ASC_NODE": 156.1984, "ARG_OF_PERICENTER": 358.5946, "MEAN_ANOMALY": 180.1179, "EPHEMERIS_TYPE": 0, "CLASSIFICATION_TYPE": "U", "NORAD_CAT_ID": 55268, "ELEMENT_SET_NO": 999, "REV_AT_EPOCH": 2132, "BSTAR": 0, "MEAN_MOTION_DOT": 9.9e-07, "MEAN_MOTION_DDOT": 0}, "tle": {"line1": "1 55268U 23009A   25337.75878249  .00000099  00000+0  00000+0 0  9996", "line2": "2 55268  55.1062 156.1984 0003635 358.5946 180.1179  2.00556312 21327"}}, "geometry": {"type": "Point", "coordinates": [-133.05099160770104, 53.54134403205876]}}, {"type": "Feature", "properties": {"norad_id": 56564, "name": "BEIDOU-3 G4 (C62)", "group": "gnss", "lat": 0.3782271191881965, "lon": 95.92682892997232, "alt_km": 35784.53712632392, "timestamp": "2025-12-07T14:37:05.448892+00:00", "meta": {"OBJECT_NAME": "BEIDOU-3 G4 (C62)", "OBJECT_ID": "2023-066A", "EPOCH": "2025-12-06T21:16:35.450688", "MEAN_MOTION": 1.00270987, "ECCENTRICITY": 0.00031462, "INCLINATION": 0.8281, "RA_OF_ASC_NODE": 301.5703, "ARG_OF_PERICENTER": 236.7147, "MEAN_ANOMALY": 16.8492, "EPHEMERIS_TYPE": 0, "CLASSIFICATION_TYPE": "U", "NORAD_CAT_ID": 56564, "ELEMENT_SET_NO": 999, "REV_AT_EPOCH": 946, "BSTAR": 0, "MEAN_MOTION_DOT": -1.05e-06, "MEAN_MOTION_DDOT": 0}, "tle": {"line1": "1 56564U 23066A   25340.88652142 -.00000105  00000+0  00000+0 0  9998", "line2": "2 56564   0.8281 301.5703 0003146 236.7147  16.8492  1.00270987  9463"}}, "geometry": {"type": "Point", "coordinates": [95.92682892997232, 0.3782271191881965]}}, {"type": "Feature", "properties": {"norad_id": 56759, "name": "NVS-01 (IRNSS-1J)", "group": "gnss", "lat": 0.31885791982704886, "lon": 65.39415009490962, "alt_km": 35823.68830354819, "timestamp": "2025-12-07T14:37:05.448907+00:00", "meta": {"OBJECT_NAME": "NVS-01 (IRNSS-1J)", "OBJECT_ID": "2023-076A", "EPOCH": "2025-12-06T21:07:43.800384", "MEAN_MOTION": 1.00265665, "ECCENTRICITY": 0.00087165, "INCLINATION": 2.6333, "RA_OF_ASC_NODE": 251.8145, "ARG_OF_PERICENTER": 7.6302, "MEAN_ANOMALY": 262.8869, "EPHEMERIS_TYPE": 0, "CLASSIFICATION_TYPE": "U", "NORAD_CAT_ID": 56759, "ELEMENT_SET_NO": 999, "REV_AT_EPOCH": 918, "BSTAR": 0, "MEAN_MOTION_DOT": -3.29e-06, "MEAN_MOTION_DDOT": 0}, "tle": {"line1": "1 56759U 23076A   25340.88036806 -.00000329  00000+0  00000+0 0  9996", "line2": "2 56759   2.6333 251.8145 0008716   7.6302 262.8869  1.00265665  9187"}}, "geometry": {"type": "Point", "coordinates": [65.39415009490962, 0.31885791982704886]}}, {"type": "Feature", "properties": {"norad_id": 57517, "name": "COSMOS 2569 (703K)", "group": "gnss", "lat": -32.244364372604124, "lon": -83.97142480934286, "alt_km": 19125.6390930324, "timestamp": "2025-12-07T14:37:05.448920+00:00", "meta": {"OBJECT_NAME": "COSMOS 2569 (703K)", "OBJECT_ID": "2023-114A", "EPOCH": "2025-12-01T16:42:34.469856", "MEAN_MOTION": 2.13103822, "ECCENTRICITY": 0.0010109, "INCLINATION": 65.1883, "RA_OF_ASC_NODE": 79.2867, "ARG_OF_PERICENTER": 287.0179, "MEAN_ANOMALY": 72.8703, "EPHEMERIS_TYPE": 0, "CLASSIFICATION_TYPE": "U", "NORAD_CAT_ID": 57517, "ELEMENT_SET_NO": 999, "REV_AT_EPOCH": 1805, "BSTAR": 0, "MEAN_MOTION_DOT": -1.6e-07, "MEAN_MOTION_DDOT": 0}, "tle": {"line1": "1 57517U 23114A   25335.69623229 -.00000016  00000+0  00000+0 0  9999", "line2": "2 57517  65.1883  79.2867 0010109 287.0179  72.8703  2.13103822 18055"}}, "geometry": {"type": "Point", "coordinates": [-83.97142480934286, -32.244364372604124]}}, {"type": "Feature", "properties": {"norad_id": 58654, "name": "BEIDOU-3 M28 (C50)", "group": "gnss", "lat": 2.022776742864738, "lon": 70.1703654599096, "alt_km": 21528.95092826016, "timestamp": "2025-12-07T14:37:05.448933+00:00", "meta": {"OBJECT_NAME": "BEIDOU-3 M28 (C50)", "OBJECT_ID": "2023-207A", "EPOCH": "2025-12-03T07:26:02.398272", "MEAN_MOTION": 1.86229561, "ECCENTRICITY": 0.00020314, "INCLINATION": 55.5764, "RA_OF_ASC_NODE": 68.9209, "ARG_OF_PERICENTER": 265.1091, "MEAN_ANOMALY": 94.871, "EPHEMERIS_TYPE": 0, "CLASSIFICATION_TYPE": "U", "NORAD_CAT_ID": 58654, "ELEMENT_SET_NO": 999, "REV_AT_EPOCH": 1319, "BSTAR": 0, "MEAN_MOTION_DOT": -5.1e-07, "MEAN_MOTION_DDOT": 0}, "tle": {"line1": "1 58654U 23207A   25337.30974998 -.00000051  00000+0  00000+0 0  9996", "line2": "2 58654  55.5764  68.9209 0002031 265.1091  94.8710  1.86229561 13199"}}, "geometry": {"type": "Point", "coordinates": [70.1703654599096, 2.022776742864738]}}, {"type": "Feature", "properties": {"norad_id": 58655, "name": "BEIDOU-3 M26 (C48)", "group": "gnss", "lat": 33.46622669102115, "lon": -138.13547128995592, "alt_km": 21528.17920067292, "timestamp": "2025-12-07T14:37:05.448945+00:00", "meta": {"OBJECT_NAME": "BEIDOU-3 M26 (C48)", "OBJECT_ID": "2023-207B", "EPOCH": "2025-12-06T07:54:02.813472", "MEAN_MOTION": 1.86231106, "ECCENTRICITY": 0.00035957, "INCLINATION": 55.5812, "RA_OF_ASC_NODE": 68.8048, "ARG_OF_PERICENTER": 252.9675, "MEAN_ANOMALY": 107.0074, "EPHEMERIS_TYPE": 0, "CLASSIFICATION_TYPE": "U", "NORAD_CAT_ID": 58655, "ELEMENT_SET_NO": 999, "REV_AT_EPOCH": 1323, "BSTAR": 0, "MEAN_MOTION_DOT": -4.8e-07, "MEAN_MOTION_DDOT": 0}, "tle": {"line1": "1 58655U 23207B   25340.32919923 -.00000048  00000+0  00000+0 0  9996", "line2": "2 58655  55.5812  68.8048 0003595 252.9675 107.0074  1.86231106 13235"}}, "geometry": {"type": "Point", "coordinates": [-138.13547128995592, 33.46622669102115]}}, {"type": "Feature", "properties": {"norad_id": 59598, "name": "GSAT0225 (GALILEO 29)", "group": "gnss", "lat": 7.624006742756616, "lon": 111.80158496756663, "alt_km": 23227.03786561125, "timestamp": "2025-12-07T14:37:05.448956+00:00", "meta": {"OBJECT_NAME": "GSAT0225 (GALILEO 29)", "OBJECT_ID": "2024-079A", "EPOCH": "2025-12-04T01:47:23.955648", "MEAN_MOTION": 1.70474518, "ECCENTRICITY": 0.0002, "INCLINATION": 54.9978, "RA_OF_ASC_NODE": 106.5374, "ARG_OF_PERICENTER": 171.9845, "MEAN_ANOMALY": 188.0819, "EPHEMERIS_TYPE": 0, "CLASSIFICATION_TYPE": "U", "NORAD_CAT_ID": 59598, "ELEMENT_SET_NO": 999, "REV_AT_EPOCH": 999, "BSTAR": 0, "MEAN_MOTION_DOT": 1.5e-07, "MEAN_MOTION_DDOT": 0}, "tle": {"line1": "1 59598U 24079A   25338.07458282  .00000015  00000+0  00000+0 0  9999", "line2": "2 59598  54.9978 106.5374 0002000 171.9845 188.0819  1.70474518  9992"}}, "geometry": {"type": "Point", "coordinates": [111.80158496756663, 7.624006742756616]}}]}